NORAD_CAT_ID,OBJECT_NAME,OBJECT_TYPE,EPOCH,MEAN_MOTION,ECCENTRICITY,INCLINATION,RA_OF_ASC_NODE,ARG_OF_PERICENTER,MEAN_ANOMALY,BSTAR,MEAN_MOTION_DOT,MEAN_MOTION_DDOT,TLE_LINE0,TLE_LINE1,TLE_LINE2,SEMIMAJOR_AXIS,PERIOD,APOGEE,PERIGEE,DECAYED
52331.0,STARLINK-3889,PAYLOAD,2022-11-03 04:29:16,15.08839971,0.0002579,53.2167,297.1509,33.8617,326.2539,6.0432e-05,6.73e-06,0.0,0 STARLINK-3889,1 52331U 22045A   22307.18699406  .00000673  00000-0  60432-4 0  9999,2 52331  53.2167 297.1509 0002579  33.8617 326.2539 15.08839971 31087,6917.88,95.438,541.53,537.961,0.0
52331.0,STARLINK-3889,PAYLOAD,2022-11-03 06:04:39,15.08847521,0.0002605,53.2165,296.8540000000001,32.7061,327.4092,0.0001326,1.823e-05,0.0,0 STARLINK-3889,1 52331U 22045A   22307.25323055  .00001823  00000-0  13260-3 0  9995,2 52331  53.2165 296.8540 0002605  32.7061 327.4092 15.08847521 31095,6917.857,95.437,541.525,537.92,0.0
52331.0,STARLINK-3889,PAYLOAD,2022-11-04 09:06:11,15.08856655,0.0002571,53.2168,291.7986,31.119,328.9954,0.00028137,4.195e-05,0.0,0 STARLINK-3889,1 52331U 22045A   22308.37930191  .00004195  00000-0  28137-3 0  9998,2 52331  53.2168 291.7986 0002571  31.1190 328.9954 15.08856655 31264,6917.829000000002,95.437,541.4730000000002,537.9159999999998,0.0
52331.0,STARLINK-3889,PAYLOAD,2022-11-05 02:35:26,15.08846701,0.0002285,53.2171,288.5245,31.3492,328.7636,1.8519e-05,6e-08,0.0,0 STARLINK-3889,1 52331U 22045A   22309.10794343  .00000006  00000-0  18519-4 0  9998,2 52331  53.2171 288.5245 0002285  31.3492 328.7636 15.08846701 31377,6917.86,95.437,541.306,538.144,0.0
52331.0,STARLINK-3889,PAYLOAD,2022-11-05 07:21:36,15.08837155,0.0002502,53.2176,287.6357,27.1766,332.9356,-1.447e-05,-5.19e-06,0.0,0 STARLINK-3889,1 52331U 22045A   22309.30667061 -.00000519  00000-0 -14470-4 0  9999,2 52331  53.2176 287.6357 0002502  27.1766 332.9356 15.08837155 31408,6917.889,95.438,541.485,538.023,0.0
52331.0,STARLINK-3889,PAYLOAD,2022-11-05 15:18:33,15.08823906,0.0002398,53.2177,286.1481,32.0435,328.0702,-0.00018358,-3.208e-05,0.0,0 STARLINK-3889,1 52331U 22045A   22309.63788475 -.00003208  00000-0 -18358-3 0  9994,2 52331  53.2177 286.1481 0002398  32.0435 328.0702 15.08823906 31457,6917.93,95.439,541.4540000000002,538.136,0.0
52331.0,STARLINK-3889,PAYLOAD,2022-11-06 05:37:01,15.08822097,0.0002442,53.2176,283.473,31.1716,328.9421,-0.00012366,-2.255e-05,0.0,0 STARLINK-3889,1 52331U 22045A   22310.23404996 -.00002255  00000-0 -12366-3 0  9999,2 52331  53.2176 283.4730 0002442  31.1716 328.9421 15.08822097 31542,6917.935,95.439,541.489,538.111,0.0
52331.0,STARLINK-3889,PAYLOAD,2022-11-07 05:27:47,15.08840153,0.000249,53.2172,279.0117,26.0799,334.0318,0.00011199,1.494e-05,0.0,0 STARLINK-3889,1 52331U 22045A   22311.22763623  .00001494  00000-0  11199-3 0  9999,2 52331  53.2172 279.0117 0002490  26.0799 334.0318 15.08840153 31697,6917.88,95.438,541.467,538.0219999999998,0.0
52331.0,STARLINK-3889,PAYLOAD,2022-11-07 08:38:34,15.08838211,0.0002477,53.2176,278.4181,29.0411,331.0719,8.142800000000001e-05,1.008e-05,0.0,0 STARLINK-3889,1 52331U 22045A   22311.36011927  .00001008  00000-0  81428-4 0  9991,2 52331  53.2176 278.4181 0002477  29.0411 331.0719 15.08838211 31711,6917.886,95.438,541.464,538.0369999999998,0.0
52331.0,STARLINK-3889,PAYLOAD,2022-11-08 06:53:58,15.08842486,0.0002469,53.2175,274.254,31.6368,328.4772,0.00031412,4.715e-05,0.0,0 STARLINK-3889,1 52331U 22045A   22312.28747975  .00004715  00000-0  31412-3 0  9997,2 52331  53.2175 274.2540 0002469  31.6368 328.4772 15.08842486 31857,6917.873000000001,95.437,541.446,538.03,0.0
52331.0,STARLINK-3889,PAYLOAD,2022-11-08 14:50:53,15.08863737,0.0002459,53.2167,272.7677,32.7724,327.3421,0.0004626,7.087e-05,0.0,0 STARLINK-3889,1 52331U 22045A   22312.61867090  .00007087  00000-0  46260-3 0  9997,2 52331  53.2167 272.7677 0002459  32.7724 327.3421 15.08863737 31906,6917.808000000001,95.436,541.374,537.972,0.0
52331.0,STARLINK-3889,PAYLOAD,2022-11-09 03:33:57,15.08873594,0.0002387,53.2167,270.388,37.1369,322.9787,0.00051518,7.928e-05,0.0,0 STARLINK-3889,1 52331U 22045A   22313.14858132  .00007928  00000-0  51518-3 0  9999,2 52331  53.2167 270.3880 0002387  37.1369 322.9787 15.08873594 31986,6917.778,95.435,541.294,537.991,0.0
52331.0,STARLINK-3889,PAYLOAD,2022-11-09 21:03:12,15.08828222,0.0002788999999999,53.2166,267.1169,43.0595,317.0615,-0.00068948,-0.00011242,0.0,0 STARLINK-3889,1 52331U 22045A   22313.87723022 -.00011242  00000-0 -68948-3 0  9999,2 52331  53.2166 267.1169 0002789  43.0595 317.0615 15.08828222 32098,6917.916,95.438,541.711,537.852,0.0
52331.0,STARLINK-3889,PAYLOAD,2022-11-10 03:24:45,15.08805282,0.0002255,53.2168,265.9269,30.2645,329.8477,-0.00065598,-0.00010703,0.0,0 STARLINK-3889,1 52331U 22045A   22314.14219579 -.00010703  00000-0 -65598-3 0  9996,2 52331  53.2168 265.9269 0002255  30.2645 329.8477 15.08805282 32132,6917.986999999999,95.44,541.4119999999998,538.2919999999998,0.0
52331.0,STARLINK-3889,PAYLOAD,2022-11-10 06:35:32,15.08805289,0.0002192,53.2167,265.3326,31.1831,328.9290000000001,-0.00011708,-2.149e-05,0.0,0 STARLINK-3889,1 52331U 22045A   22314.27468004 -.00002149  00000-0 -11708-3 0  9998,2 52331  53.2167 265.3326 0002192  31.1831 328.9290 15.08805289 32158,6917.986,95.44,541.368,538.335,0.0
52331.0,STARLINK-3889,PAYLOAD,2022-11-10 19:18:38,15.08811606,0.0002291,53.2171,262.9539,29.699,330.4132,0.000929,0.00014517,0.0,0 STARLINK-3889,1 52331U 22045A   22314.80461466  .00014517  00000-0  92900-3 0  9995,2 52331  53.2171 262.9539 0002291  29.6990 330.4132 15.08811606 32232,6917.967,95.439,541.4169999999998,538.247,0.0
52331.0,STARLINK-3889,PAYLOAD,2022-11-11 03:15:34,15.08834454,0.0002378,53.217,261.4681,29.0459,331.0665,0.0014624,0.0002306,0.0,0 STARLINK-3889,1 52331U 22045A   22315.13581724  .00023060  00000-0  14624-2 0  9991,2 52331  53.2170 261.4681 0002378  29.0459 331.0665 15.08834454 32282,6917.897,95.438,541.4069999999998,538.117,0.0
52331.0,STARLINK-3889,PAYLOAD,2022-11-11 06:26:20,15.08838248,0.0002392,53.2171,260.8735,29.6834,330.4294,0.0011715,0.00018405,0.0,0 STARLINK-3889,1 52331U 22045A   22315.26829690  .00018405  00000-0  11715-2 0  9997,2 52331  53.2171 260.8735 0002392  29.6834 330.4294 15.08838248 32304,6917.886,95.438,541.406,538.096,0.0
52331.0,STARLINK-3889,PAYLOAD,2022-11-12 03:06:21,15.08847011,0.0002383,53.2169,257.0068,31.3017,328.8116,0.00059942,9.266e-05,0.0,0 STARLINK-3889,1 52331U 22045A   22316.12941757  .00009266  00000-0  59942-3 0  9992,2 52331  53.2169 257.0068 0002383  31.3017 328.8116 15.08847011 32437,6917.859,95.437,541.372,538.075,0.0
52331.0,STARLINK-3889,PAYLOAD,2022-11-12 06:17:07,15.08843642,0.0002394,53.2171,256.4126,31.2691,328.8443,0.00039488,6.003e-05,0.0,0 STARLINK-3889,1 52331U 22045A   22316.26189799  .00006003  00000-0  39488-3 0  9996,2 52331  53.2171 256.4126 0002394  31.2691 328.8443 15.08843642 32458,6917.869000000002,95.437,541.39,538.078,0.0
52331.0,STARLINK-3889,PAYLOAD,2022-11-13 01:21:45,15.08854803,0.0002358,53.2172,252.8445,31.8181,328.2954,0.00050568,7.772e-05,0.0,0 STARLINK-3889,1 52331U 22045A   22317.05677100  .00007772  00000-0  50568-3 0  9998,2 52331  53.2172 252.8445 0002358  31.8181 328.2954 15.08854803 32578,6917.835,95.437,541.331,538.069,0.0
52331.0,STARLINK-3889,PAYLOAD,2022-11-14 05:58:42,15.08836047,0.0002587,53.2169,247.493,30.9658,329.1486,0.00018404,2.642e-05,0.0,0 STARLINK-3889,1 52331U 22045A   22318.24909744  .00002642  00000-0  18404-3 0  9996,2 52331  53.2169 247.4930 0002587  30.9658 329.1486 15.08836047 32756,6917.892,95.438,541.547,537.9680000000002,0.0
52331.0,STARLINK-3889,PAYLOAD,2022-11-14 12:20:14,15.08836856,0.0002417,53.2168,246.3044,36.4464,323.6692,0.00028008,4.172e-05,0.0,0 STARLINK-3889,1 52331U 22045A   22318.51405793  .00004172  00000-0  28008-3 0  9992,2 52331  53.2168 246.3044 0002417  36.4464 323.6692 15.08836856 32797,6917.89,95.438,541.427,538.0830000000002,0.0
52331.0,STARLINK-3889,PAYLOAD,2022-11-15 12:11:01,15.08841517,0.0002469,53.2165,241.8438,35.2939,324.8216,0.00015966,2.254e-05,0.0,0 STARLINK-3889,1 52331U 22045A   22319.50765670  .00002254  00000-0  15966-3 0  9993,2 52331  53.2165 241.8438 0002469  35.2939 324.8216 15.08841517 32944,6917.876,95.437,541.4490000000002,538.033,0.0
52331.0,STARLINK-3889,PAYLOAD,2022-11-15 18:32:33,15.08847445,0.0002493,53.2165,240.6543,35.9284,324.1876,0.00033143,4.992e-05,0.0,0 STARLINK-3889,1 52331U 22045A   22319.77261482  .00004992  00000-0  33143-3 0  9992,2 52331  53.2165 240.6543 0002493  35.9284 324.1876 15.08847445 32980,6917.858,95.437,541.447,537.998,0.0
52331.0,STARLINK-3889,PAYLOAD,2022-11-16 12:01:48,15.08847215,0.0002394,53.2164,237.3824,33.6361,326.4783,0.00020061,2.907e-05,0.0,0 STARLINK-3889,1 52331U 22045A   22320.50125289  .00002907  00000-0  20061-3 0  9998,2 52331  53.2164 237.3824 0002394  33.6361 326.4783 15.08847215 33095,6917.858,95.437,541.379,538.067,0.0
52331.0,STARLINK-3889,PAYLOAD,2022-11-17 00:44:52,15.08857489,0.0002408,53.2163,235.0039,32.8059,327.3083,0.00040597,6.182e-05,0.0,0 STARLINK-3889,1 52331U 22045A   22321.03116695  .00006182  00000-0  40597-3 0  9993,2 52331  53.2163 235.0039 0002408  32.8059 327.3083 15.08857489 33174,6917.8269999999975,95.436,541.3580000000002,538.026,0.0
52331.0,STARLINK-3889,PAYLOAD,2022-11-17 13:27:58,15.0884614,0.000248,53.2158,232.6254,32.158,327.9563,0.00011002,1.463e-05,0.0,0 STARLINK-3889,1 52331U 22045A   22321.56108820  .00001463  00000-0  11002-3 0  9998,2 52331  53.2158 232.6254 0002480  32.1580 327.9563 15.08846140 33252,6917.861999999999,95.437,541.442,538.011,0.0
52331.0,STARLINK-3889,PAYLOAD,2022-11-17 19:49:30,15.08841595,0.0002471,53.2156,231.4351,34.3455,325.7696,6.9867e-06,-1.77e-06,0.0,0 STARLINK-3889,1 52331U 22045A   22321.82605018 -.00000177  00000-0  69867-5 0  9994,2 52331  53.2156 231.4351 0002471  34.3455 325.7696 15.08841595 33296,6917.876,95.437,541.45,538.031,0.0
